[{"OBJECT_NAME":"OBJECT L","OBJECT_ID":"2023-085L","EPOCH":"2026-03-09T23:02:21.999840","MEAN_MOTION":15.29079976,"ECCENTRICITY":0.0005428,"INCLINATION":97.486,"RA_OF_ASC_NODE":178.8598,"ARG_OF_PERICENTER":50.8528,"MEAN_ANOMALY":309.3193,"EPHEMERIS_TYPE":0,"CLASSIFICATION_TYPE":"U","NORAD_CAT_ID":57014,"ELEMENT_SET_NO":999,"REV_AT_EPOCH":15144,"BSTAR":0.00063462603,"MEAN_MOTION_DOT":0.00017871,"MEAN_MOTION_DDOT":0},{"OBJECT_NAME":"STARLINK-35866","OBJECT_ID":"2025-283A","EPOCH":"2026-03-09T06:50:20.658048","MEAN_MOTION":15.30191624,"ECCENTRICITY":0.00013203,"INCLINATION":53.162,"RA_OF_ASC_NODE":25.9432,"ARG_OF_PERICENTER":118.3683,"MEAN_ANOMALY":241.7451,"EPHEMERIS_TYPE":0,"CLASSIFICATION_TYPE":"U","NORAD_CAT_ID":66878,"ELEMENT_SET_NO":999,"REV_AT_EPOCH":1578,"BSTAR":0.0013245698,"MEAN_MOTION_DOT":0.00039067,"MEAN_MOTION_DDOT":0}]
